[{"OBJECT_NAME":"IRIDIUM 173","OBJECT_ID":"2019-002D","EPOCH":"2026-03-09T23:25:14.922624","MEAN_MOTION":14.34217176,"ECCENTRICITY":0.00020878,"INCLINATION":86.3979,"RA_OF_ASC_NODE":35.0129,"ARG_OF_PERICENTER":83.8645,"MEAN_ANOMALY":276.2788,"EPHEMERIS_TYPE":0,"CLASSIFICATION_TYPE":"U","NORAD_CAT_ID":43925,"ELEMENT_SET_NO":999,"REV_AT_EPOCH":37473,"BSTAR":2.1469625e-5,"MEAN_MOTION_DOT":8.0e-7,"MEAN_MOTION_DDOT":0},{"OBJECT_NAME":"SL-8 R\/B","OBJECT_ID":"1984-019B","EPOCH":"2026-03-09T22:06:47.987136","MEAN_MOTION":14.37174246,"ECCENTRICITY":0.00278505,"INCLINATION":74.0438,"RA_OF_ASC_NODE":30.8816,"ARG_OF_PERICENTER":190.2275,"MEAN_ANOMALY":169.8315,"EPHEMERIS_TYPE":0,"CLASSIFICATION_TYPE":"U","NORAD_CAT_ID":14760,"ELEMENT_SET_NO":999,"REV_AT_EPOCH":20100,"BSTAR":9.566459e-5,"MEAN_MOTION_DOT":2.6e-6,"MEAN_MOTION_DDOT":0}]
